$$SOE
2460721.500000000, A.D. 2025-Feb-15 00:00:00.0000, 4.940569013048164E+08, 3.075805483217181E+08, 6.490092442214146E+06,
2460728.500000000, A.D. 2025-Feb-22 00:00:00.0000, 4.889252553857604E+08, 3.151763277210197E+08, 6.479387685311958E+06,
2460735.500000000, A.D. 2025-Mar-01 00:00:00.0000, 4.836729729689420E+08, 3.226944002611358E+08, 6.467082458566412E+06,
2460742.500000000, A.D. 2025-Mar-08 00:00:00.0000, 4.783011848719379E+08, 3.301328021462846E+08, 6.453177274586037E+06,
2460749.500000000, A.D. 2025-Mar-15 00:00:00.0000, 4.728110563709063E+08, 3.374895860346804E+08, 6.437673058849260E+06,
2460756.500000000, A.D. 2025-Mar-22 00:00:00.0000, 4.672037848403841E+08, 3.447628220703042E+08, 6.420571395599321E+06,
2460763.500000000, A.D. 2025-Mar-29 00:00:00.0000, 4.614805987506267E+08, 3.519505966620113E+08, 6.401874464906320E+06,
2460770.500000000, A.D. 2025-Apr-05 00:00:00.0000, 4.556427583477350E+08, 3.590510121475951E+08, 6.381584897167385E+06,
2460777.500000000, A.D. 2025-Apr-12 00:00:00.0000, 4.496915560899517E+08, 3.660621874464483E+08, 6.359705729875699E+06,
2460784.500000000, A.D. 2025-Apr-19 00:00:00.0000, 4.436283166525931E+08, 3.729822588195832E+08, 6.336240411534786E+06,
2460791.500000000, A.D. 2025-Apr-26 00:00:00.0000, 4.374543967731575E+08, 3.798093805341351E+08, 6.311192810956389E+06,
2460798.500000000, A.D. 2025-May-03 00:00:00.0000, 4.311711850501756E+08, 3.865417254516600E+08, 6.284567222860485E+06,
2460805.500000000, A.D. 2025-May-10 00:00:00.0000, 4.247801017242763E+08, 3.931774855489829E+08, 6.256368367687076E+06,
2460812.500000000, A.D. 2025-May-17 00:00:00.0000, 4.182825984780844E+08, 3.997148723306596E+08, 6.226601378767610E+06,
2460819.500000000, A.D. 2025-May-24 00:00:00.0000, 4.116801584288520E+08, 4.061521170787122E+08, 6.195271756371379E+06,
2460826.500000000, A.D. 2025-May-31 00:00:00.0000, 4.049742967317808E+08, 4.124874712506534E+08, 6.162385275654912E+06,
2460833.500000000, A.D. 2025-Jun-07 00:00:00.0000, 3.981665613930959E+08, 4.187192082300547E+08, 6.127947983665347E+06,
2460840.500000000, A.D. 2025-Jun-14 00:00:00.0000, 3.912585319274157E+08, 4.248456257621825E+08, 6.091966447789848E+06,
2460847.500000000, A.D. 2025-Jun-21 00:00:00.0000, 3.842518170758522E+08, 4.308650458041035E+08, 6.054447876843840E+06,
2460854.500000000, A.D. 2025-Jun-28 00:00:00.0000, 3.771480547139642E+08, 4.367758135543841E+08, 6.015399972110599E+06,
2460861.500000000, A.D. 2025-Jul-05 00:00:00.0000, 3.699489124329409E+08, 4.425762978181899E+08, 5.974830823650420E+06,
2460868.500000000, A.D. 2025-Jul-12 00:00:00.0000, 3.626560876026503E+08, 4.482648919020994E+08, 5.932748895368427E+06,
2460875.500000000, A.D. 2025-Jul-19 00:00:00.0000, 3.552713071060593E+08, 4.538400144635381E+08, 5.889163034546554E+06,
2460882.500000000, A.D. 2025-Jul-26 00:00:00.0000, 3.477963269551118E+08, 4.593001102581927E+08, 5.844082482052952E+06,
2460889.500000000, A.D. 2025-Aug-02 00:00:00.0000, 3.402329318536392E+08, 4.646436508068311E+08, 5.797516879098654E+06,
2460896.500000000, A.D. 2025-Aug-09 00:00:00.0000, 3.325829347308539E+08, 4.698691349665202E+08, 5.749476267314941E+06,
2460903.500000000, A.D. 2025-Aug-16 00:00:00.0000, 3.248481763223338E+08, 4.749750893425263E+08, 5.699971070073545E+06,
2460910.500000000, A.D. 2025-Aug-23 00:00:00.0000, 3.170305250909135E+08, 4.799600685569391E+08, 5.649012029738992E+06,
2460917.500000000, A.D. 2025-Aug-30 00:00:00.0000, 3.091318778162311E+08, 4.848226560877064E+08, 5.596610129233569E+06,
2460924.500000000, A.D. 2025-Sep-06 00:00:00.0000, 3.011541594344167E+08, 4.895614666776054E+08, 5.542776709940702E+06,
2460931.500000000, A.D. 2025-Sep-13 00:00:00.0000, 2.930993204560146E+08, 4.941751478298874E+08, 5.487523736631513E+06,
2460938.500000000, A.D. 2025-Sep-20 00:00:00.0000, 2.849693352352886E+08, 4.986623787476062E+08, 5.430863775199831E+06,
2460945.500000000, A.D. 2025-Sep-27 00:00:00.0000, 2.767662021507617E+08, 5.030218698290374E+08, 5.372809840585172E+06,
2460952.500000000, A.D. 2025-Oct-04 00:00:00.0000, 2.684919436809312E+08, 5.072523632579291E+08, 5.313375344041348E+06,
2460959.500000000, A.D. 2025-Oct-11 00:00:00.0000, 2.601486060016721E+08, 5.113526337451769E+08, 5.252574097060680E+06,
2460966.500000000, A.D. 2025-Oct-18 00:00:00.0000, 2.517382583891966E+08, 5.153214891472958E+08, 5.190420323545218E+06,
2460973.500000000, A.D. 2025-Oct-25 00:00:00.0000, 2.432629925682663E+08, 5.191577709725376E+08, 5.126928668278575E+06,
2460980.500000000, A.D. 2025-Nov-01 00:00:00.0000, 2.347249220452077E+08, 5.228603547900081E+08, 5.062114199238032E+06,
2460987.500000000, A.D. 2025-Nov-08 00:00:00.0000, 2.261261814603444E+08, 5.264281505102947E+08, 4.995992397851676E+06,
2460994.500000000, A.D. 2025-Nov-15 00:00:00.0000, 2.174689261077468E+08, 5.298601024790264E+08, 4.928579118664175E+06,
2461001.500000000, A.D. 2025-Nov-22 00:00:00.0000, 2.087553320251118E+08, 5.331551896035938E+08, 4.859890499248058E+06,
2461008.500000000, A.D. 2025-Nov-29 00:00:00.0000, 1.999875965009891E+08, 5.363124266480596E+08, 4.789942926910460E+06,
2461015.500000000, A.D. 2025-Dec-06 00:00:00.0000, 1.911679367221476E+08, 5.393308665592731E+08, 4.718753259712696E+06,
2461022.500000000, A.D. 2025-Dec-13 00:00:00.0000, 1.822985869938315E+08, 5.422096004530032E+08, 4.646338986521035E+06,
2461029.500000000, A.D. 2025-Dec-20 00:00:00.0000, 1.733817980258481E+08, 5.449477562842880E+08, 4.572718089246124E+06,
2461036.500000000, A.D. 2025-Dec-27 00:00:00.0000, 1.644198372114327E+08, 5.475444987938479E+08, 4.497908917384595E+06,
2461043.500000000, A.D. 2026-Jan-03 00:00:00.0000, 1.554149884398816E+08, 5.499990301148525E+08, 4.421930158354908E+06,
2461050.500000000, A.D. 2026-Jan-10 00:00:00.0000, 1.463695515527461E+08, 5.523105903614882E+08, 4.344800838137716E+06,
2461057.500000000, A.D. 2026-Jan-17 00:00:00.0000, 1.372858416763924E+08, 5.544784581084578E+08, 4.266540323491126E+06,
2461064.500000000, A.D. 2026-Jan-24 00:00:00.0000, 1.281661885092515E+08, 5.565019507848376E+08, 4.187168320551842E+06,
2461071.500000000, A.D. 2026-Jan-31 00:00:00.0000, 1.190129355876237E+08, 5.583804249755820E+08, 4.106704867176265E+06,
2461078.500000000, A.D. 2026-Feb-07 00:00:00.0000, 1.098284395919296E+08, 5.601132765739591E+08, 4.025170308818370E+06,
2461085.500000000, A.D. 2026-Feb-14 00:00:00.0000, 1.006150699467730E+08, 5.616999407702572E+08, 3.942585233603060E+06,
2461092.500000000, A.D. 2026-Feb-21 00:00:00.0000, 9.137520910270369E+07, 5.631398924545958E+08, 3.858970378313839E+06,
2461099.500000000, A.D. 2026-Feb-28 00:00:00.0000, 8.211125241559067E+07, 5.644326481879231E+08, 3.774346699097365E+06,
2461106.500000000, A.D. 2026-Mar-07 00:00:00.0000, 7.282560556567355E+07, 5.655777677904031E+08, 3.688735636399388E+06,
2461113.500000000, A.D. 2026-Mar-14 00:00:00.0000, 6.352068229146735E+07, 5.665748532138259E+08, 3.602159129110664E+06,
2461120.500000000, A.D. 2026-Mar-21 00:00:00.0000, 5.419890422157616E+07, 5.674235475971062E+08, 3.514639451334059E+06,
2461127.500000000, A.D. 2026-Mar-28 00:00:00.0000, 4.486270079610606E+07, 5.681235355337731E+08, 3.426199140176773E+06,
2461134.500000000, A.D. 2026-Apr-04 00:00:00.0000, 3.551450867467128E+07, 5.686745435851485E+08, 3.336860991155058E+06,
2461141.500000000, A.D. 2026-Apr-11 00:00:00.0000, 2.615677090548695E+07, 5.690763406786458E+08, 3.246648066852421E+06,
2461148.500000000, A.D. 2026-Apr-18 00:00:00.0000, 1.679193601553369E+07, 5.693287383837901E+08, 3.155583703863740E+06,
2461155.500000000, A.D. 2026-Apr-25 00:00:00.0000, 7.422457068311555E+06, 5.694315910797703E+08, 3.063691515225947E+06,
2461162.500000000, A.D. 2026-May-02 00:00:00.0000, -1.949209279639846E+06, 5.693847959840268E+08, 2.970995383319080E+06,
2461169.500000000, A.D. 2026-May-09 00:00:00.0000, -1.132060359860050E+07, 5.691882929751304E+08, 2.877519426617622E+06,
2461176.500000000, A.D. 2026-May-16 00:00:00.0000, -2.068926400380164E+07, 5.688420643484240E+08, 2.783287917118132E+06,
2461183.500000000, A.D. 2026-May-23 00:00:00.0000, -3.005272591961820E+07, 5.683461355277086E+08, 2.688325227325618E+06,
2461190.500000000, A.D. 2026-May-30 00:00:00.0000, -3.940852336709613E+07, 5.677005770534189E+08, 2.592656023484528E+06,
2461197.500000000, A.D. 2026-Jun-06 00:00:00.0000, -4.875419209088168E+07, 5.669055045730062E+08, 2.496305466571033E+06,
2461204.500000000, A.D. 2026-Jun-13 00:00:00.0000, -5.808727085959649E+07, 5.659610770320338E+08, 2.399299101021171E+06,
2461211.500000000, A.D. 2026-Jun-20 00:00:00.0000, -6.740530144021802E+07, 5.648674959930850E+08, 2.301662716021001E+06,
2461218.500000000, A.D. 2026-Jun-27 00:00:00.0000, -7.670582894371061E+07, 5.636250057426460E+08, 2.203422307039827E+06,
2461225.500000000, A.D. 2026-Jul-04 00:00:00.0000, -8.598640254132757E+07, 5.622338934104800E+08, 2.104604074019253E+06,
2461232.500000000, A.D. 2026-Jul-11 00:00:00.0000, -9.524457629723154E+07, 5.606944889692210E+08, 2.005234421896964E+06,
2461239.500000000, A.D. 2026-Jul-18 00:00:00.0000, -1.044779100243040E+08, 5.590071651397678E+08, 1.905339956813663E+06,
2461246.500000000, A.D. 2026-Jul-25 00:00:00.0000, -1.136839701382573E+08, 5.571723372051343E+08, 1.804947475763291E+06,
2461253.500000000, A.D. 2026-Aug-01 00:00:00.0000, -1.228603304614973E+08, 5.551904626845913E+08, 1.704083941162825E+06,
2461260.500000000, A.D. 2026-Aug-08 00:00:00.0000, -1.320045727614425E+08, 5.530620408322024E+08, 1.602776417570829E+06,
2461267.500000000, A.D. 2026-Aug-15 00:00:00.0000, -1.411142866079977E+08, 5.507876124102963E+08, 1.501051969211012E+06,
2461274.500000000, A.D. 2026-Aug-22 00:00:00.0000, -1.501870693109836E+08, 5.483677609598316E+08, 1.398937687828481E+06,
2461281.500000000, A.D. 2026-Aug-29 00:00:00.0000, -1.592205282256776E+08, 5.458031141954312E+08, 1.296460948561579E+06,
2461288.500000000, A.D. 2026-Sep-05 00:00:00.0000, -1.682122832919583E+08, 5.430943426560146E+08, 1.193649463824391E+06,
2461295.500000000, A.D. 2026-Sep-12 00:00:00.0000, -1.771599673525024E+08, 5.402421581065032E+08, 1.090531114096284E+06,
$$EOE